NORAD_CAT_ID,OBJECT_NAME,OBJECT_TYPE,EPOCH,MEAN_MOTION,ECCENTRICITY,INCLINATION,RA_OF_ASC_NODE,ARG_OF_PERICENTER,MEAN_ANOMALY,BSTAR,MEAN_MOTION_DOT,MEAN_MOTION_DDOT,TLE_LINE0,TLE_LINE1,TLE_LINE2,SEMIMAJOR_AXIS,PERIOD,APOGEE,PERIGEE,DECAYED
53025.0,STARLINK-4218,PAYLOAD,2022-10-12 06:00:00,15.08843164,0.0001779,53.2156,270.6107,44.5116,200.549,-0.0018385,-0.00029432,0.0,0 STARLINK-4218,1 53025U 22076AR  22285.25001157 -.00029432  00000-0 -18385-2 0  9991,2 53025  53.2156 270.6107 0001779  44.5116 200.5490 15.08843164 15597,6917.871,95.437,540.966,538.505,0.0
53025.0,STARLINK-4218,PAYLOAD,2022-10-12 14:00:01,15.08857958,0.0001781999999999,53.2161,269.1185,42.1141,214.5247,-0.0056821999999999,-0.00089642,0.0,0 STARLINK-4218,1 53025U 22076AR  22285.58334491 -.00089642  00000-0 -56822-2 0  9994,2 53025  53.2161 269.1185 0001782  42.1141 214.5247 15.08857958  1303,6917.825,95.436,540.923,538.4580000000002,0.0
53025.0,STARLINK-4218,PAYLOAD,2022-10-12 22:00:00,15.08775983,0.0001808,53.2169,267.6245,49.1585,219.0621,0.0058165,0.00093346,0.0,0 STARLINK-4218,1 53025U 22076AR  22285.91667824  .00093346  00000-0  58165-2 0  9996,2 53025  53.2169 267.6245 0001808  49.1585 219.0621 15.08775983  1302,6918.076,95.442,541.192,538.69,0.0
53025.0,STARLINK-4218,PAYLOAD,2022-10-13 06:00:00,15.08855176,0.0001674,53.2164,266.1256,45.9316,233.8634,-0.0032437,-0.00051564,0.0,0 STARLINK-4218,1 53025U 22076AR  22286.25001157 -.00051564  00000-0 -32437-2 0  9997,2 53025  53.2164 266.1256 0001674  45.9316 233.8634 15.08855176 15744,6917.834,95.437,540.857,538.5409999999998,0.0
53025.0,STARLINK-4218,PAYLOAD,2022-10-13 14:00:01,15.08816744,0.0001505,53.2167,264.6324,47.6335,243.7516,0.0016830999999999,0.00026583,0.0,0 STARLINK-4218,1 53025U 22076AR  22286.58334491  .00026583  00000-0  16831-2 0  9994,2 53025  53.2167 264.6324 0001505  47.6335 243.7516 15.08816744  1303,6917.951,95.439,540.8580000000002,538.775,0.0
53025.0,STARLINK-4218,PAYLOAD,2022-10-13 20:00:01,15.08837671,0.0001348,53.2172,263.5118,54.2545,155.874,-0.00015343,-2.729e-05,0.0,0 STARLINK-4218,1 53025U 22076AR  22286.83335648 -.00002729  00000-0 -15343-3 0  9993,2 53025  53.2172 263.5118 0001348  54.2545 155.8740 15.08837671 15837,6917.888000000001,95.438,540.685,538.82,0.0
53025.0,STARLINK-4218,PAYLOAD,2022-10-13 22:00:00,15.08835534,0.0001369,53.2174,263.1378,55.06100000000001,247.9031,0.00016136,2.281e-05,0.0,0 STARLINK-4218,1 53025U 22076AR  22286.91667824  .00002281  00000-0  16136-3 0  9998,2 53025  53.2174 263.1378 0001369  55.0610 247.9031 15.08835534  1307,6917.894,95.438,540.706,538.812,0.0
53025.0,STARLINK-4218,PAYLOAD,2022-10-14 14:00:01,15.08793265,0.0001549,53.2173,260.1438,51.1209,275.0519,0.0040566,0.00064783,0.0,0 STARLINK-4218,1 53025U 22076AR  22287.58334491  .00064783  00000-0  40566-2 0  9991,2 53025  53.2173 260.1438 0001549  51.1209 275.0519 15.08793265  1308,6918.023,95.441,540.96,538.817,0.0
53025.0,STARLINK-4218,PAYLOAD,2022-10-14 22:00:00,15.08843925,0.000158,53.2174,258.6423,49.1612,288.5954,-0.0016895,-0.00027079,0.0,0 STARLINK-4218,1 53025U 22076AR  22287.91667824 -.00027079  00000-0 -16895-2 0  9994,2 53025  53.2174 258.6423 0001580  49.1612 288.5954 15.08843925 15996,6917.868,95.437,540.826,538.64,0.0
53025.0,STARLINK-4218,PAYLOAD,2022-10-15 14:00:01,15.08795629,0.0001658,53.2175,255.6532,42.6071,318.3716,0.0008514,0.00013272,0.0,0 STARLINK-4218,1 53025U 22076AR  22288.58334491  .00013272  00000-0  85140-3 0  9997,2 53025  53.2175 255.6532 0001658  42.6071 318.3716 15.08795629 16095,6918.016,95.44,541.028,538.734,0.0
53025.0,STARLINK-4218,PAYLOAD,2022-10-15 22:00:01,15.08838432,0.0001736,53.2176,254.1482,53.1654,319.4482,-0.00051809,-8.524e-05,0.0,0 STARLINK-4218,1 53025U 22076AR  22288.91668981 -.00008524  00000-0 -51809-3 0  9999,2 53025  53.2176 254.1482 0001736  53.1654 319.4482 15.08838432  1305,6917.885,95.438,540.951,538.549,0.0
53025.0,STARLINK-4218,PAYLOAD,2022-10-16 14:00:01,15.08844797,0.0001875999999999,53.2176,251.1564,50.5884,345.1128,-0.00099503,-0.00016091,0.0,0 STARLINK-4218,1 53025U 22076AR  22289.58334491 -.00016091  00000-0 -99503-3 0  9990,2 53025  53.2176 251.1564 0001876  50.5884 345.1128 15.08844797  1308,6917.866,95.437,541.029,538.433,0.0
53025.0,STARLINK-4218,PAYLOAD,2022-10-16 22:00:00,15.08847123,0.0001771999999999,53.2177,249.6608,55.4703,351.8223,-0.00068257,-0.00011137,0.0,0 STARLINK-4218,1 53025U 22076AR  22289.91667824 -.00011137  00000-0 -68257-3 0  9994,2 53025  53.2177 249.6608 0001772  55.4703 351.8223 15.08847123  1305,6917.859,95.437,540.9490000000002,538.498,0.0
53025.0,STARLINK-4218,PAYLOAD,2022-10-17 06:00:00,15.08823831,0.0001924,53.2177,248.1668,48.3885,10.4966,0.0014056,0.00022143,0.0,0 STARLINK-4218,1 53025U 22076AR  22290.25001157  .00022143  00000-0  14056-2 0  9998,2 53025  53.2177 248.1668 0001924  48.3885  10.4966 15.08823831 16348,6917.93,95.439,541.126,538.464,0.0
53025.0,STARLINK-4218,PAYLOAD,2022-10-17 14:00:01,15.08846014,0.0001736,53.2179,246.6689,49.5201,20.9584,-0.0018734,-0.00029985,0.0,0 STARLINK-4218,1 53025U 22076AR  22290.58334491 -.00029985  00000-0 -18734-2 0  9994,2 53025  53.2179 246.6689 0001736  49.5201  20.9584 15.08846014  1302,6917.861999999999,95.437,540.928,538.526,0.0
53025.0,STARLINK-4218,PAYLOAD,2022-10-17 22:00:00,15.08847074,0.0001636,53.2178,245.172,53.944,28.1223,0.00068722,0.00010668,0.0,0 STARLINK-4218,1 53025U 22076AR  22290.91667824  .00010668  00000-0  68722-3 0  9999,2 53025  53.2178 245.1720 0001636  53.9440  28.1223 15.08847074  1301,6917.859,95.437,540.856,538.592,0.0
53025.0,STARLINK-4218,PAYLOAD,2022-10-18 08:00:01,15.088049599999998,0.000177,53.2175,243.3021,44.3303,142.2401,0.0031079,0.00049474,0.0,0 STARLINK-4218,1 53025U 22076AR  22291.33334491  .00049474  00000-0  31079-2 0  9998,2 53025  53.2175 243.3021 0001770  44.3303 142.2401 15.08804960 16515,6917.986999999999,95.44,541.077,538.628,0.0
53025.0,STARLINK-4218,PAYLOAD,2022-10-18 14:00:01,15.08842988,0.0001654,53.2176,242.1785,50.2638,54.9838,-0.0029594,-0.00047083,0.0,0 STARLINK-4218,1 53025U 22076AR  22291.58334491 -.00047083  00000-0 -29594-2 0  9990,2 53025  53.2176 242.1785 0001654  50.2638  54.9838 15.08842988  1304,6917.871,95.437,540.88,538.592,0.0
53025.0,STARLINK-4218,PAYLOAD,2022-10-18 22:00:00,15.08824895,0.0001666999999999,53.2176,240.682,55.4253,61.3953,0.00057641,8.894e-05,0.0,0 STARLINK-4218,1 53025U 22076AR  22291.91667824  .00008894  00000-0  57641-3 0  9996,2 53025  53.2176 240.6820 0001667  55.4253  61.3953 15.08824895  1308,6917.927,95.439,540.945,538.638,0.0
53025.0,STARLINK-4218,PAYLOAD,2022-10-19 14:00:01,15.08844606,0.0001678,53.2172,237.6896,54.0899,85.897,8.7955e-05,1.112e-05,0.0,0 STARLINK-4218,1 53025U 22076AR  22292.58334491  .00001112  00000-0  87955-4 0  9999,2 53025  53.2172 237.6896 0001678  54.0899  85.8970 15.08844606  1308,6917.866,95.437,540.8919999999998,538.57,0.0
53025.0,STARLINK-4218,PAYLOAD,2022-10-19 22:00:00,15.08856626,0.0001628,53.2176,236.1977,53.9997,97.578,0.0013767999999999,0.00021702,0.0,0 STARLINK-4218,1 53025U 22076AR  22292.91667824  .00021702  00000-0  13768-2 0  9991,2 53025  53.2176 236.1977 0001628  53.9997  97.5780 15.08856626  1302,6917.83,95.437,540.821,538.568,0.0
53025.0,STARLINK-4218,PAYLOAD,2022-10-20 08:00:01,15.08837468,0.0001696999999999,53.2167,234.3242,47.9289,208.1795,0.00050325,7.730000000000001e-05,0.0,0 STARLINK-4218,1 53025U 22076AR  22293.33334491  .00007730  00000-0  50325-3 0  9995,2 53025  53.2167 234.3242 0001697  47.9289 208.1795 15.08837468 16811,6917.888000000001,95.438,540.927,538.5790000000002,0.0
53025.0,STARLINK-4218,PAYLOAD,2022-10-20 14:00:01,15.08832576,0.0001539,53.2171,233.2018,52.2792,122.5308,-0.00054334,-8.923e-05,0.0,0 STARLINK-4218,1 53025U 22076AR  22293.58334491 -.00008923  00000-0 -54334-3 0  9993,2 53025  53.2171 233.2018 0001539  52.2792 122.5308 15.08832576  1300,6917.903,95.438,540.8330000000002,538.703,0.0
53025.0,STARLINK-4218,PAYLOAD,2022-10-20 22:00:00,15.08846218,0.0001565999999999,53.217,231.7055,56.3889,129.9974,-0.00012242,-2.236e-05,0.0,0 STARLINK-4218,1 53025U 22076AR  22293.91667824 -.00002236  00000-0 -12242-3 0  9992,2 53025  53.2170 231.7055 0001566  56.3889 129.9974 15.08846218  1303,6917.861,95.437,540.81,538.643,0.0
53025.0,STARLINK-4218,PAYLOAD,2022-10-21 06:00:00,15.08829551,0.0001785,53.2169,230.2113,48.7407,149.2417,0.0014785,0.00023314,0.0,0 STARLINK-4218,1 53025U 22076AR  22294.25001157  .00023314  00000-0  14785-2 0  9992,2 53025  53.2169 230.2113 0001785  48.7407 149.2417 15.08829551 16959,6917.9119999999975,95.438,541.012,538.5419999999998,0.0
53025.0,STARLINK-4218,PAYLOAD,2022-10-21 14:00:01,15.08826767,0.0001665,53.2171,228.7126,54.6431,154.9504,0.0004892,7.503e-05,0.0,0 STARLINK-4218,1 53025U 22076AR  22294.58334491  .00007503  00000-0  48920-3 0  9999,2 53025  53.2171 228.7126 0001665  54.6431 154.9504 15.08826767  1307,6917.920999999999,95.438,540.938,538.634,0.0
53025.0,STARLINK-4218,PAYLOAD,2022-10-21 22:00:00,15.08853041,0.0001757,53.2171,227.2152,57.7902,163.3803,-0.000768,-0.00012495,0.0,0 STARLINK-4218,1 53025U 22076AR  22294.91667824 -.00012495  00000-0 -76800-3 0  9991,2 53025  53.2171 227.2152 0001757  57.7902 163.3803 15.08853041  1300,6917.840999999999,95.437,540.9209999999998,538.49,0.0
53025.0,STARLINK-4218,PAYLOAD,2022-10-22 08:00:01,15.08826118,0.0001813,53.2169,225.3458,49.5487,276.129,0.0010624,0.00016654,0.0,0 STARLINK-4218,1 53025U 22076AR  22295.33334491  .00016654  00000-0  10624-2 0  9999,2 53025  53.2169 225.3458 0001813  49.5487 276.1290 15.08826118 17119,6917.9230000000025,95.438,541.0419999999998,538.534,0.0
53025.0,STARLINK-4218,PAYLOAD,2022-10-22 14:00:01,15.08827991,0.0001716,53.2175,224.222,53.9302,190.4413,0.0012139,0.00019078,0.0,0 STARLINK-4218,1 53025U 22076AR  22295.58334491  .00019078  00000-0  12139-2 0  9992,2 53025  53.2175 224.2220 0001716  53.9302 190.4413 15.08827991  1307,6917.917,95.438,540.969,538.595,0.0
